{
  "type": "FeatureCollection",
  "features": [
    {
      "type": "Feature",
      "properties": {
        "norad_id": 34846,
        "name": "COSMOS 2251 DEB",
        "group": "cosmos-2251-debris",
        "lat": 11.923891471723774,
        "lon": 75.507713217774,
        "alt_km": 752.8187839773173,
        "timestamp": "2025-12-14T05:42:18.857934+00:00",
        "meta_object_name": "COSMOS 2251 DEB",
        "meta_object_id": "1993-036ABQ",
        "meta_epoch": "2025-12-13T12:20:32.957376",
        "meta_mean_motion": 14.47222822,
        "meta_eccentricity": 0.00260962,
        "meta_inclination": 74.0309,
        "meta_ra_of_asc_node": 260.3267,
        "meta_arg_of_pericenter": 326.6171,
        "meta_mean_anomaly": 33.3341,
        "meta_ephemeris_type": 0,
        "meta_classification_type": "U",
        "meta_norad_cat_id": 34846,
        "meta_element_set_no": 999,
        "meta_rev_at_epoch": 87415,
        "meta_bstar": 0.001088392,
        "meta_mean_motion_dot": 3.969e-05,
        "meta_mean_motion_ddot": 0,
        "tle_line1": "1 34846U 93036ABQ 25347.51427034  .00003969  00000+0  10884-2 0  9992",
        "tle_line2": "2 34846  74.0309 260.3267 0026096 326.6171  33.3341 14.47222822874151"
      },
      "geometry": {
        "type": "Point",
        "coordinates": [
          75.507713217774,
          11.923891471723774
        ]
      }
    },
    {
      "type": "Feature",
      "properties": {
        "norad_id": 34852,
        "name": "COSMOS 2251 DEB",
        "group": "cosmos-2251-debris",
        "lat": 1.1981377322908526,
        "lon": 79.87495231397668,
        "alt_km": 782.4422297691799,
        "timestamp": "2025-12-14T05:42:18.857944+00:00",
        "meta_object_name": "COSMOS 2251 DEB",
        "meta_object_id": "1993-036ABW",
        "meta_epoch": "2025-12-13T10:29:52.444320",
        "meta_mean_motion": 14.37006008,
        "meta_eccentricity": 0.00162543,
        "meta_inclination": 74.0331,
        "meta_ra_of_asc_node": 261.6893,
        "meta_arg_of_pericenter": 4.7369,
        "meta_mean_anomaly": 355.3935,
        "meta_ephemeris_type": 0,
        "meta_classification_type": "U",
        "meta_norad_cat_id": 34852,
        "meta_element_set_no": 999,
        "meta_rev_at_epoch": 87544,
        "meta_bstar": 0.00018836767,
        "meta_mean_motion_dot": 5.33e-06,
        "meta_mean_motion_ddot": 0,
        "tle_line1": "1 34852U 93036ABW 25347.43741255  .00000533  00000+0  18837-3 0  9995",
        "tle_line2": "2 34852  74.0331 261.6893 0016254   4.7369 355.3935 14.37006008875444"
      },
      "geometry": {
        "type": "Point",
        "coordinates": [
          79.87495231397668,
          1.1981377322908526
        ]
      }
    },
    {
      "type": "Feature",
      "properties": {
        "norad_id": 34854,
        "name": "COSMOS 2251 DEB",
        "group": "cosmos-2251-debris",
        "lat": -59.70753375950268,
        "lon": 126.2899837005853,
        "alt_km": 606.1174343718812,
        "timestamp": "2025-12-14T05:42:18.857954+00:00",
        "meta_object_name": "COSMOS 2251 DEB",
        "meta_object_id": "1993-036ABY",
        "meta_epoch": "2025-12-12T18:13:14.177568",
        "meta_mean_motion": 14.76625947,
        "meta_eccentricity": 0.00661438,
        "meta_inclination": 74.0288,
        "meta_ra_of_asc_node": 158.5442,
        "meta_arg_of_pericenter": 270.2181,
        "meta_mean_anomaly": 89.1414,
        "meta_ephemeris_type": 0,
        "meta_classification_type": "U",
        "meta_norad_cat_id": 34854,
        "meta_element_set_no": 999,
        "meta_rev_at_epoch": 71882,
        "meta_bstar": 0.0010403851,
        "meta_mean_motion_dot": 7.508e-05,
        "meta_mean_motion_ddot": 0,
        "tle_line1": "1 34854U 93036ABY 25346.75919187  .00007508  00000+0  10404-2 0  9992",
        "tle_line2": "2 34854  74.0288 158.5442 0066143 270.2181  89.1414 14.76625947718829"
      },
      "geometry": {
        "type": "Point",
        "coordinates": [
          126.2899837005853,
          -59.70753375950268
        ]
      }
    },
    {
      "type": "Feature",
      "properties": {
        "norad_id": 34856,
        "name": "COSMOS 2251 DEB",
        "group": "cosmos-2251-debris",
        "lat": 11.283112160297282,
        "lon": -101.51229636377865,
        "alt_km": 534.6701425997435,
        "timestamp": "2025-12-14T05:42:18.857966+00:00",
        "meta_object_name": "COSMOS 2251 DEB",
        "meta_object_id": "1993-036ACA",
        "meta_epoch": "2025-12-13T08:31:18.425568",
        "meta_mean_motion": 15.06125837,
        "meta_eccentricity": 0.00327715,
        "meta_inclination": 73.9969,
        "meta_ra_of_asc_node": 83.5849,
        "meta_arg_of_pericenter": 221.436,
        "meta_mean_anomaly": 203.1687,
        "meta_ephemeris_type": 0,
        "meta_classification_type": "U",
        "meta_norad_cat_id": 34856,
        "meta_element_set_no": 999,
        "meta_rev_at_epoch": 89121,
        "meta_bstar": 0.0031648688,
        "meta_mean_motion_dot": 0.00047128,
        "meta_mean_motion_ddot": 0,
        "tle_line1": "1 34856U 93036ACA 25347.35507437  .00047128  00000+0  31649-2 0  9998",
        "tle_line2": "2 34856  73.9969  83.5849 0032771 221.4360 203.1687 15.06125837891212"
      },
      "geometry": {
        "type": "Point",
        "coordinates": [
          -101.51229636377865,
          11.283112160297282
        ]
      }
    },
    {
      "type": "Feature",
      "properties": {
        "norad_id": 34857,
        "name": "COSMOS 2251 DEB",
        "group": "cosmos-2251-debris",
        "lat": -68.58566261946424,
        "lon": 57.00910784337812,
        "alt_km": 677.5609013920002,
        "timestamp": "2025-12-14T05:42:18.857977+00:00",
        "meta_object_name": "COSMOS 2251 DEB",
        "meta_object_id": "1993-036ACB",
        "meta_epoch": "2025-12-13T12:32:08.232000",
        "meta_mean_motion": 14.58904471,
        "meta_eccentricity": 0.0065829,
        "meta_inclination": 74.015,
        "meta_ra_of_asc_node": 105.3358,
        "meta_arg_of_pericenter": 229.6695,
        "meta_mean_anomaly": 258.3689,
        "meta_ephemeris_type": 0,
        "meta_classification_type": "U",
        "meta_norad_cat_id": 34857,
        "meta_element_set_no": 999,
        "meta_rev_at_epoch": 87912,
        "meta_bstar": 0.0014049497,
        "meta_mean_motion_dot": 6.759e-05,
        "meta_mean_motion_ddot": 0,
        "tle_line1": "1 34857U 93036ACB 25347.52231750  .00006759  00000+0  14049-2 0  9990",
        "tle_line2": "2 34857  74.0150 105.3358 0065829 229.6695 258.3689 14.58904471879121"
      },
      "geometry": {
        "type": "Point",
        "coordinates": [
          57.00910784337812,
          -68.58566261946424
        ]
      }
    },
    {
      "type": "Feature",
      "properties": {
        "norad_id": 34859,
        "name": "COSMOS 2251 DEB",
        "group": "cosmos-2251-debris",
        "lat": 1.7881780148582849,
        "lon": 156.02969107823535,
        "alt_km": 524.2608367131006,
        "timestamp": "2025-12-14T05:42:18.857988+00:00",
        "meta_object_name": "COSMOS 2251 DEB",
        "meta_object_id": "1993-036ACD",
        "meta_epoch": "2025-12-13T10:27:28.319616",
        "meta_mean_motion": 15.14950815,
        "meta_eccentricity": 0.00020891,
        "meta_inclination": 74.0317,
        "meta_ra_of_asc_node": 338.2099,
        "meta_arg_of_pericenter": 342.6349,
        "meta_mean_anomaly": 143.1101,
        "meta_ephemeris_type": 0,
        "meta_classification_type": "U",
        "meta_norad_cat_id": 34859,
        "meta_element_set_no": 999,
        "meta_rev_at_epoch": 88369,
        "meta_bstar": 0.0080515741,
        "meta_mean_motion_dot": 0.00153394,
        "meta_mean_motion_ddot": 0,
        "tle_line1": "1 34859U 93036ACD 25347.43574444  .00153394  00000+0  80516-2 0  9992",
        "tle_line2": "2 34859  74.0317 338.2099 0002089 342.6349 143.1101 15.14950815883691"
      },
      "geometry": {
        "type": "Point",
        "coordinates": [
          156.02969107823535,
          1.7881780148582849
        ]
      }
    },
    {
      "type": "Feature",
      "properties": {
        "norad_id": 34861,
        "name": "COSMOS 2251 DEB",
        "group": "cosmos-2251-debris",
        "lat": 17.637970335106402,
        "lon": 53.019205076336554,
        "alt_km": 554.0263165885399,
        "timestamp": "2025-12-14T05:42:18.857998+00:00",
        "meta_object_name": "COSMOS 2251 DEB",
        "meta_object_id": "1993-036ACF",
        "meta_epoch": "2025-12-13T12:19:29.078400",
        "meta_mean_motion": 15.0266086,
        "meta_eccentricity": 0.00071969,
        "meta_inclination": 74.0183,
        "meta_ra_of_asc_node": 49.2699,
        "meta_arg_of_pericenter": 44.2074,
        "meta_mean_anomaly": 18.3316,
        "meta_ephemeris_type": 0,
        "meta_classification_type": "U",
        "meta_norad_cat_id": 34861,
        "meta_element_set_no": 999,
        "meta_rev_at_epoch": 88104,
        "meta_bstar": 0.0039582398,
        "meta_mean_motion_dot": 0.00053191,
        "meta_mean_motion_ddot": 0,
        "tle_line1": "1 34861U 93036ACF 25347.51353100  .00053191  00000+0  39582-2 0  9999",
        "tle_line2": "2 34861  74.0183  49.2699 0007196  44.2074  18.3316 15.02660860881047"
      },
      "geometry": {
        "type": "Point",
        "coordinates": [
          53.019205076336554,
          17.637970335106402
        ]
      }
    }
  ]
}